start=new Date('2022-02-23T00:00:00.000Z').valueOf();
sats=[{"REF_FRAME":"TEME","MEAN_MOTION":"15.06401476","PERIAPSIS":"546.104","APOAPSIS":"548.314","EPOCH":"2022-02-22T20:26:59.877888","PERIOD":"95.592","RA_OF_ASC_NODE":"41.9099","NORAD_CAT_ID":"46686","RCS_SIZE":"LARGE","MEAN_ELEMENT_THEORY":"SGP4","DECAY_DATE":null,"MEAN_MOTION_DDOT":"0.0000000000000","CLASSIFICATION_TYPE":"U","OBJECT_TYPE":"PAYLOAD","BSTAR":"0.00000928600000","CENTER_NAME":"EARTH","SEMIMAJOR_AXIS":"6925.344","TLE_LINE2":"2 46686  53.0557  41.9099 0001596  52.9989 307.1146 15.06401476 74470","INCLINATION":"53.0557","OBJECT_ID":"2020-073S","MEAN_ANOMALY":"307.1146","TLE_LINE1":"1 46686U 20073S   22053.85208192 -.00000143  00000-0  92860-5 0  9998","OBJECT_NAME":"STARLINK-1783","COUNTRY_CODE":"US","EPHEMERIS_TYPE":"0","ELEMENT_SET_NO":"999","SITE":"AFETR","MEAN_MOTION_DOT":"-0.00000143","LAUNCH_DATE":"2020-10-18","REV_AT_EPOCH":"7447","ARG_OF_PERICENTER":"52.9989","ECCENTRICITY":"0.00015960","GP_ID":"196684321","FILE":"3314780","TIME_SYSTEM":"UTC"},{"RA_OF_ASC_NODE":"6.9655","PERIOD":"95.592","EPOCH":"2022-02-22T20:07:46.179552","APOAPSIS":"548.510","PERIAPSIS":"545.934","MEAN_MOTION":"15.06397135","REF_FRAME":"TEME","OBJECT_TYPE":"PAYLOAD","CLASSIFICATION_TYPE":"U","MEAN_MOTION_DDOT":"0.0000000000000","DECAY_DATE":null,"MEAN_ELEMENT_THEORY":"SGP4","RCS_SIZE":"LARGE","NORAD_CAT_ID":"46687","MEAN_MOTION_DOT":"-0.00001666","SITE":"AFETR","ELEMENT_SET_NO":"999","EPHEMERIS_TYPE":"0","COUNTRY_CODE":"US","OBJECT_NAME":"STARLINK-1784","TLE_LINE1":"1 46687U 20073T   22053.83872893 -.00001666  00000-0 -92949-4 0  9991","MEAN_ANOMALY":"302.8120","OBJECT_ID":"2020-073T","INCLINATION":"53.0566","TLE_LINE2":"2 46687  53.0566   6.9655 0001860  57.3049 302.8120 15.06397135 74964","SEMIMAJOR_AXIS":"6925.357","CENTER_NAME":"EARTH","BSTAR":"-0.00009294900000","TIME_SYSTEM":"UTC","FILE":"3314780","GP_ID":"196684572","ECCENTRICITY":"0.00018600","ARG_OF_PERICENTER":"57.3049","LAUNCH_DATE":"2020-10-18","REV_AT_EPOCH":"7496"},{"INCLINATION":"53.0564","OBJECT_ID":"2020-073V","SEMIMAJOR_AXIS":"6925.367","TLE_LINE2":"2 46689  53.0564  42.7683 0001807  53.0402 307.0753 15.06394095 75692","BSTAR":"-0.00002850800000","CENTER_NAME":"EARTH","EPHEMERIS_TYPE":"0","SITE":"AFETR","ELEMENT_SET_NO":"999","MEAN_MOTION_DOT":"-0.00000706","COUNTRY_CODE":"US","TLE_LINE1":"1 46689U 20073V   22053.66410646 -.00000706  00000-0 -28508-4 0  9992","MEAN_ANOMALY":"307.0753","OBJECT_NAME":"STARLINK-1788","ARG_OF_PERICENTER":"53.0402","LAUNCH_DATE":"2020-10-18","REV_AT_EPOCH":"7569","FILE":"3314780","TIME_SYSTEM":"UTC","GP_ID":"196683320","ECCENTRICITY":"0.00018070","PERIAPSIS":"545.980","MEAN_MOTION":"15.06394095","REF_FRAME":"TEME","PERIOD":"95.593","RA_OF_ASC_NODE":"42.7683","EPOCH":"2022-02-22T15:56:18.798144","APOAPSIS":"548.483","DECAY_DATE":null,"RCS_SIZE":"LARGE","MEAN_ELEMENT_THEORY":"SGP4","NORAD_CAT_ID":"46689","OBJECT_TYPE":"PAYLOAD","MEAN_MOTION_DDOT":"0.0000000000000","CLASSIFICATION_TYPE":"U"},{"RA_OF_ASC_NODE":"18.0411","PERIOD":"95.592","EPOCH":"2022-02-22T14:21:25.834752","APOAPSIS":"548.185","PERIAPSIS":"546.244","MEAN_MOTION":"15.06399614","REF_FRAME":"TEME","OBJECT_TYPE":"PAYLOAD","CLASSIFICATION_TYPE":"U","MEAN_MOTION_DDOT":"0.0000000000000","DECAY_DATE":null,"MEAN_ELEMENT_THEORY":"SGP4","RCS_SIZE":"LARGE","NORAD_CAT_ID":"46690","MEAN_MOTION_DOT":"0.00000214","SITE":"AFETR","ELEMENT_SET_NO":"999","EPHEMERIS_TYPE":"0","COUNTRY_CODE":"US","OBJECT_NAME":"STARLINK-1789","MEAN_ANOMALY":"291.5359","TLE_LINE1":"1 46690U 20073W   22053.59821568  .00000214  00000-0  33279-4 0  9998","INCLINATION":"53.0565","OBJECT_ID":"2020-073W","TLE_LINE2":"2 46690  53.0565  18.0411 0001401  68.5780 291.5359 15.06399614 74780","SEMIMAJOR_AXIS":"6925.350","CENTER_NAME":"EARTH","BSTAR":"0.00003327900000","TIME_SYSTEM":"UTC","FILE":"3314780","GP_ID":"196683570","ECCENTRICITY":"0.00014010","ARG_OF_PERICENTER":"68.5780","REV_AT_EPOCH":"7478","LAUNCH_DATE":"2020-10-18"},{"GP_ID":"196684822","ECCENTRICITY":"0.00013980","FILE":"3314780","TIME_SYSTEM":"UTC","LAUNCH_DATE":"2020-10-18","REV_AT_EPOCH":"7465","ARG_OF_PERICENTER":"59.7789","COUNTRY_CODE":"US","OBJECT_NAME":"STARLINK-1790","TLE_LINE1":"1 46691U 20073X   22053.66363201  .00002668  00000-0  19793-3 0  9991","MEAN_ANOMALY":"300.3338","MEAN_MOTION_DOT":"0.00002668","SITE":"AFETR","ELEMENT_SET_NO":"999","EPHEMERIS_TYPE":"0","TLE_LINE2":"2 46691  53.0547  27.7705 0001398  59.7789 300.3338 15.06404899 74654","SEMIMAJOR_AXIS":"6925.334","CENTER_NAME":"EARTH","BSTAR":"0.00019793000000","INCLINATION":"53.0547","OBJECT_ID":"2020-073X","CLASSIFICATION_TYPE":"U","MEAN_MOTION_DDOT":"0.0000000000000","OBJECT_TYPE":"PAYLOAD","NORAD_CAT_ID":"46691","DECAY_DATE":null,"MEAN_ELEMENT_THEORY":"SGP4","RCS_SIZE":"LARGE","APOAPSIS":"548.167","PERIOD":"95.592","RA_OF_ASC_NODE":"27.7705","EPOCH":"2022-02-22T15:55:37.805664","REF_FRAME":"TEME","PERIAPSIS":"546.230","MEAN_MOTION":"15.06404899"},{"SEMIMAJOR_AXIS":"6925.400","TLE_LINE2":"2 46692  53.0551  44.0047 0001715  60.6117 299.5043 15.06383359 74402","BSTAR":"-0.00016070000000","CENTER_NAME":"EARTH","INCLINATION":"53.0551","OBJECT_ID":"2020-073Y","COUNTRY_CODE":"US","MEAN_ANOMALY":"299.5043","TLE_LINE1":"1 46692U 20073Y   22053.38398218 -.00002673  00000-0 -16070-3 0  9990","OBJECT_NAME":"STARLINK-1791","EPHEMERIS_TYPE":"0","ELEMENT_SET_NO":"999","SITE":"AFETR","MEAN_MOTION_DOT":"-0.00002673","REV_AT_EPOCH":"7440","LAUNCH_DATE":"2020-10-18","ARG_OF_PERICENTER":"60.6117","GP_ID":"196638859","ECCENTRICITY":"0.00017150","FILE":"3313833","TIME_SYSTEM":"UTC","REF_FRAME":"TEME","PERIAPSIS":"546.077","MEAN_MOTION":"15.06383359","APOAPSIS":"548.452","PERIOD":"95.593","RA_OF_ASC_NODE":"44.0047","EPOCH":"2022-02-22T09:12:56.060352","NORAD_CAT_ID":"46692","DECAY_DATE":null,"RCS_SIZE":"LARGE","MEAN_ELEMENT_THEORY":"SGP4","MEAN_MOTION_DDOT":"0.0000000000000","CLASSIFICATION_TYPE":"U","OBJECT_TYPE":"PAYLOAD"},{"REF_FRAME":"TEME","MEAN_MOTION":"15.06390214","PERIAPSIS":"545.994","APOAPSIS":"548.494","EPOCH":"2022-02-22T17:36:29.484576","PERIOD":"95.593","RA_OF_ASC_NODE":"27.4414","NORAD_CAT_ID":"46693","RCS_SIZE":"LARGE","MEAN_ELEMENT_THEORY":"SGP4","DECAY_DATE":null,"MEAN_MOTION_DDOT":"0.0000000000000","CLASSIFICATION_TYPE":"U","OBJECT_TYPE":"PAYLOAD","BSTAR":"-0.00002719300000","CENTER_NAME":"EARTH","SEMIMAJOR_AXIS":"6925.379","TLE_LINE2":"2 46693  53.0556  27.4414 0001805  53.2012 306.9142 15.06390214 74662","OBJECT_ID":"2020-073Z","INCLINATION":"53.0556","TLE_LINE1":"1 46693U 20073Z   22053.73367459 -.00000687  00000-0 -27193-4 0  9995","MEAN_ANOMALY":"306.9142","OBJECT_NAME":"STARLINK-1792","COUNTRY_CODE":"US","EPHEMERIS_TYPE":"0","MEAN_MOTION_DOT":"-0.00000687","SITE":"AFETR","ELEMENT_SET_NO":"999","REV_AT_EPOCH":"7466","LAUNCH_DATE":"2020-10-18","ARG_OF_PERICENTER":"53.2012","ECCENTRICITY":"0.00018050","GP_ID":"196683821","TIME_SYSTEM":"UTC","FILE":"3314780"},{"OBJECT_NAME":"STARLINK-1793","MEAN_ANOMALY":"233.3923","TLE_LINE1":"1 46694U 20073AA  22053.69127747 -.00000229  00000-0  35119-5 0  9994","COUNTRY_CODE":"US","SITE":"AFETR","ELEMENT_SET_NO":"999","MEAN_MOTION_DOT":"-0.00000229","EPHEMERIS_TYPE":"0","CENTER_NAME":"EARTH","BSTAR":"0.00000351190000","TLE_LINE2":"2 46694  53.0560   7.6442 0001495 126.7203 233.3923 15.06395161 74949","SEMIMAJOR_AXIS":"6925.363","INCLINATION":"53.0560","OBJECT_ID":"2020-073AA","ECCENTRICITY":"0.00014950","GP_ID":"196684071","FILE":"3314780","TIME_SYSTEM":"UTC","LAUNCH_DATE":"2020-10-18","REV_AT_EPOCH":"7494","ARG_OF_PERICENTER":"126.7203","APOAPSIS":"548.264","EPOCH":"2022-02-22T16:35:26.373408","PERIOD":"95.592","RA_OF_ASC_NODE":"7.6442","REF_FRAME":"TEME","MEAN_MOTION":"15.06395161","PERIAPSIS":"546.193","CLASSIFICATION_TYPE":"U","MEAN_MOTION_DDOT":"0.0000000000000","OBJECT_TYPE":"PAYLOAD","NORAD_CAT_ID":"46694","MEAN_ELEMENT_THEORY":"SGP4","RCS_SIZE":"LARGE","DECAY_DATE":null},{"TIME_SYSTEM":"UTC","FILE":"3314780","ECCENTRICITY":"0.00017980","GP_ID":"196684322","ARG_OF_PERICENTER":"46.2315","LAUNCH_DATE":"2020-10-18","REV_AT_EPOCH":"7496","EPHEMERIS_TYPE":"0","SITE":"AFETR","ELEMENT_SET_NO":"999","MEAN_MOTION_DOT":"0.00001334","TLE_LINE1":"1 46696U 20073AC  22053.84241376  .00001334  00000-0  10849-3 0  9996","MEAN_ANOMALY":"313.8823","OBJECT_NAME":"STARLINK-1795","COUNTRY_CODE":"US","INCLINATION":"53.0572","OBJECT_ID":"2020-073AC","BSTAR":"0.00010849000000","CENTER_NAME":"EARTH","SEMIMAJOR_AXIS":"6925.380","TLE_LINE2":"2 46696  53.0572   6.9496 0001798  46.2315 313.8823 15.06389681 74966","OBJECT_TYPE":"PAYLOAD","MEAN_MOTION_DDOT":"0.0000000000000","CLASSIFICATION_TYPE":"U","RCS_SIZE":"LARGE","MEAN_ELEMENT_THEORY":"SGP4","DECAY_DATE":null,"NORAD_CAT_ID":"46696","EPOCH":"2022-02-22T20:13:04.548864","RA_OF_ASC_NODE":"6.9496","PERIOD":"95.593","APOAPSIS":"548.490","MEAN_MOTION":"15.06389681","PERIAPSIS":"546.000","REF_FRAME":"TEME"},{"OBJECT_TYPE":"PAYLOAD","CLASSIFICATION_TYPE":"U","MEAN_MOTION_DDOT":"0.0000000000000","MEAN_ELEMENT_THEORY":"SGP4","RCS_SIZE":"LARGE","DECAY_DATE":null,"NORAD_CAT_ID":"46698","EPOCH":"2022-02-22T16:48:43.050528","RA_OF_ASC_NODE":"27.5883","PERIOD":"95.592","APOAPSIS":"548.345","MEAN_MOTION":"15.06400362","PERIAPSIS":"546.079","REF_FRAME":"TEME","TIME_SYSTEM":"UTC","FILE":"3314780","ECCENTRICITY":"0.00016360","GP_ID":"196684573","ARG_OF_PERICENTER":"66.3705","LAUNCH_DATE":"2020-10-18","REV_AT_EPOCH":"7466","SITE":"AFETR","MEAN_MOTION_DOT":"0.00000924","ELEMENT_SET_NO":"999","EPHEMERIS_TYPE":"0","OBJECT_NAME":"STARLINK-1797","MEAN_ANOMALY":"293.7456","TLE_LINE1":"1 46698U 20073AE  22053.70049827  .00000924  00000-0  80906-4 0  9996","COUNTRY_CODE":"US","INCLINATION":"53.0553","OBJECT_ID":"2020-073AE","CENTER_NAME":"EARTH","BSTAR":"0.00008090600000","TLE_LINE2":"2 46698  53.0553  27.5883 0001636  66.3705 293.7456 15.06400362 74668","SEMIMAJOR_AXIS":"6925.347"}];
